#aV2007 11  5  0  0   .00000000      96 DD+AD WGS84 FIT  NGA
## 1452  86400.00000000   900.00000000 54409  .0000000000000
+   31     1  2  3  4  5  6  7  8  9 10 11 12 13 14 15 16 17
+         18 19 20 21 22 23 24 25 26 27 28 30 31 32  0  0  0
+          0  0  0  0  0  0  0  0  0  0  0  0  0  0  0  0  0
+          0  0  0  0  0  0  0  0  0  0  0  0  0  0  0  0  0
+          0  0  0  0  0  0  0  0  0  0  0  0  0  0  0  0  0
++         0  0  0  0  0  0  0  0  0  0  0  0  0  0  0  0  0
++         0  0  0  0  0  0  0  0  0  0  0  0  0  0  0  0  0
++         0  0  0  0  0  0  0  0  0  0  0  0  0  0  0  0  0
++         0  0  0  0  0  0  0  0  0  0  0  0  0  0  0  0  0
++         0  0  0  0  0  0  0  0  0  0  0  0  0  0  0  0  0
%c cc cc ccc ccc cccc cccc cccc cccc ccccc ccccc ccccc ccccc
%c cc cc ccc ccc cccc cccc cccc cccc ccccc ccccc ccccc ccccc
%f  0.0000000  0.000000000  0.00000000000  0.000000000000000
%f  0.0000000  0.000000000  0.00000000000  0.000000000000000
%i    0    0    0    0      0      0      0      0         0
%i    0    0    0    0      0      0      0      0         0
/*      NGA, ST. LOUIS,MO.                                  
/*   EPHEMERIS COMPUTED FROM  3 DAYS OF DATA                
/* CCCCCCCCCCCCCCCCCCCCCCCCCCCCCCCCCCCCCCCCCCCCCCCCCCCCCCCCC
/* CCCCCCCCCCCCCCCCCCCCCCCCCCCCCCCCCCCCCCCCCCCCCCCCCCCCCCCCC
*  2007 11  5  1 45   .00000000                                                 
P  1 -16420.664747  16891.848440 -11969.050501    164.606013                    
V  1   4980.504312 -14799.742117 -27304.365222       .022126                    
P  2  18737.353758 -12698.650063  13451.295642    148.768464                    
V  2  17782.602047    156.522356 -24590.387781       .027805                    
P  3 -10506.707891  23658.066108   4819.815611    139.604426                    
V  3  -2202.790790  -7392.951588  30361.710092       .054483                    
P  4  25926.972960  -5774.585557   3162.102150    -21.027109                    
V  4   4436.608887   2421.140283 -30820.746765      -.041775                    
P  5 -15570.100531 -21203.351902  -4450.683722    518.534131                    
V  5   6007.447901   1649.044649 -30533.150729       .253877                    
P  6 -11034.258814 -13565.277703  20166.106072    224.210894                    
V  6   9612.216050 -23454.012280 -10639.887966      -.078613                    
P  7 -12733.395545 -10847.357101  20962.157250    -30.972304                    
V  7   8830.408784 -24425.785293  -7428.526924       .084652                    
P  8  26413.446276    476.484208   4481.410023   -128.746290                    
V  8  -5539.483796   2308.604326  31218.735668      -.012154                    
P  9  -3371.045989 -14966.647285 -22299.033403     95.240607                    
V  9  26381.808568  -4834.125793   -585.990514       .016290                    
P 10   5921.900860 -15634.525794  20442.283283   -132.041667                    
V 10  16635.470928  20386.782222  11027.206403      -.128252                    
P 11   6878.359614  15299.818288 -20733.774212     25.589976                    
V 11 -24934.950619   8508.439166  -1685.096141       .003749                    
P 12 -10385.529008 -22872.280037  -8645.597435   -347.220322                    
V 12   8843.758841   7135.878883 -29131.253931      -.012866                    
P 13   9677.489924  12313.157748  21353.751672    218.871354                    
V 13 -11545.786302  24698.516977  -8942.611470       .026952                    
P 14 -16655.805013   6139.891496 -19625.433666   -322.173136                    
V 14   8974.408752 -23453.060179 -14974.270215       .025463                    
P 15   4973.960077 -25308.577103  -6376.947985    -90.300221                    
V 15   5519.666434  -6581.281354  30269.045578       .103786                    
P 16 -10238.853988  11445.910434  21729.488498    123.241858                    
V 16 -16942.906078 -21569.709380   3551.568185       .019050                    
P 17  16919.019725  -4551.570773 -19903.165666     49.813353                    
V 17  -8461.293503  23933.039288 -12793.685206      -.009477                    
P 18 -19289.260696 -16499.198048  -8236.657650   -227.389538                    
V 18  -4086.822594 -10140.345680  28941.088071       .021869                    
P 19  -6684.201535  24739.016020  -6584.393035      5.218228                    
V 19  -6309.584632   6422.162280  30282.764978       .021056                    
P 20  12734.439485  22553.187939  -6082.166376    126.757740                    
V 20  -7109.527939  -4008.834887 -30217.933938      -.006260                    
P 21 -21961.968389  -7472.547255  13595.725729     76.900226                    
V 21  16468.280680  -4223.645046  23961.798370      -.003854                    
P 22 -18895.288443  -4084.789973 -18068.777731    202.253138                    
V 22 -12147.866676 -19958.474965  17019.631232       .007173                    
P 23   2332.962296  21663.300706  14956.298358    306.383380                    
V 23  -8979.653361  17068.298542 -23442.530852       .034708                    
P 24 -10989.514014 -13369.925892  20258.470453     43.711584                    
V 24  25180.353004  -3576.302983  11694.058560       .028450                    
P 25  17001.285850   9146.635906  18538.393746    474.112946                    
V 25 -21845.167448   6869.233811  17129.349006       .062365                    
P 26   7786.793989 -24742.604723  -4533.457143     84.838264                    
V 26   4105.188169  -3922.535453  32144.029558       .123241                    
P 27  22291.528959   5378.549242  14230.110931    145.718851                    
V 27 -16172.138855   5114.030089  24347.001543       .023856                    
P 28  19653.850469   7567.302077 -16042.749080     -9.797692                    
V 28  11122.679170  17758.479892  21195.670917      -.006362                    
P 30 -18150.669427 -19360.030117   1704.141786     51.340999                    
V 30    760.570626  -4012.721157 -31278.585957       .014046                    
P 31 -24664.047910   8002.657625   6132.110101      3.549570                    
V 31  -7794.263512  -1345.267121 -30525.088801      -.014669                    
P 32 -13460.376518   6302.352321 -21535.419552    126.674174                    
V 32 -15471.982782 -23879.988821   2765.713064       .139220                    
EOF
